{
  "type": "FeatureCollection",
  "features": [
    {
      "type": "Feature",
      "properties": {
        "grid_id": "NN-01-01",
        "name": "演示网格 1-1",
        "source": "project generated grid",
        "note": "用于前端评分和热力图演示；分值由运行时模型计算"
      },
      "geometry": {
        "type": "Polygon",
        "coordinates": [
          [
            [
              108.15,
              22.65
            ],
            [
              108.2,
              22.65
            ],
            [
              108.2,
              22.7
            ],
            [
              108.15,
              22.7
            ],
            [
              108.15,
              22.65
            ]
          ]
        ]
      }
    },
    {
      "type": "Feature",
      "properties": {
        "grid_id": "NN-01-02",
        "name": "演示网格 1-2",
        "source": "project generated grid",
        "note": "用于前端评分和热力图演示；分值由运行时模型计算"
      },
      "geometry": {
        "type": "Polygon",
        "coordinates": [
          [
            [
              108.15,
              22.7
            ],
            [
              108.2,
              22.7
            ],
            [
              108.2,
              22.75
            ],
            [
              108.15,
              22.75
            ],
            [
              108.15,
              22.7
            ]
          ]
        ]
      }
    },
    {
      "type": "Feature",
      "properties": {
        "grid_id": "NN-01-03",
        "name": "演示网格 1-3",
        "source": "project generated grid",
        "note": "用于前端评分和热力图演示；分值由运行时模型计算"
      },
      "geometry": {
        "type": "Polygon",
        "coordinates": [
          [
            [
              108.15,
              22.75
            ],
            [
              108.2,
              22.75
            ],
            [
              108.2,
              22.799999999999997
            ],
            [
              108.15,
              22.799999999999997
            ],
            [
              108.15,
              22.75
            ]
          ]
        ]
      }
    },
    {
      "type": "Feature",
      "properties": {
        "grid_id": "NN-01-04",
        "name": "演示网格 1-4",
        "source": "project generated grid",
        "note": "用于前端评分和热力图演示；分值由运行时模型计算"
      },
      "geometry": {
        "type": "Polygon",
        "coordinates": [
          [
            [
              108.15,
              22.799999999999997
            ],
            [
              108.2,
              22.799999999999997
            ],
            [
              108.2,
              22.849999999999998
            ],
            [
              108.15,
              22.849999999999998
            ],
            [
              108.15,
              22.799999999999997
            ]
          ]
        ]
      }
    },
    {
      "type": "Feature",
      "properties": {
        "grid_id": "NN-01-05",
        "name": "演示网格 1-5",
        "source": "project generated grid",
        "note": "用于前端评分和热力图演示；分值由运行时模型计算"
      },
      "geometry": {
        "type": "Polygon",
        "coordinates": [
          [
            [
              108.15,
              22.849999999999998
            ],
            [
              108.2,
              22.849999999999998
            ],
            [
              108.2,
              22.9
            ],
            [
              108.15,
              22.9
            ],
            [
              108.15,
              22.849999999999998
            ]
          ]
        ]
      }
    },
    {
      "type": "Feature",
      "properties": {
        "grid_id": "NN-01-06",
        "name": "演示网格 1-6",
        "source": "project generated grid",
        "note": "用于前端评分和热力图演示；分值由运行时模型计算"
      },
      "geometry": {
        "type": "Polygon",
        "coordinates": [
          [
            [
              108.15,
              22.9
            ],
            [
              108.2,
              22.9
            ],
            [
              108.2,
              22.95
            ],
            [
              108.15,
              22.95
            ],
            [
              108.15,
              22.9
            ]
          ]
        ]
      }
    },
    {
      "type": "Feature",
      "properties": {
        "grid_id": "NN-02-01",
        "name": "演示网格 2-1",
        "source": "project generated grid",
        "note": "用于前端评分和热力图演示；分值由运行时模型计算"
      },
      "geometry": {
        "type": "Polygon",
        "coordinates": [
          [
            [
              108.2,
              22.65
            ],
            [
              108.25,
              22.65
            ],
            [
              108.25,
              22.7
            ],
            [
              108.2,
              22.7
            ],
            [
              108.2,
              22.65
            ]
          ]
        ]
      }
    },
    {
      "type": "Feature",
      "properties": {
        "grid_id": "NN-02-02",
        "name": "演示网格 2-2",
        "source": "project generated grid",
        "note": "用于前端评分和热力图演示；分值由运行时模型计算"
      },
      "geometry": {
        "type": "Polygon",
        "coordinates": [
          [
            [
              108.2,
              22.7
            ],
            [
              108.25,
              22.7
            ],
            [
              108.25,
              22.75
            ],
            [
              108.2,
              22.75
            ],
            [
              108.2,
              22.7
            ]
          ]
        ]
      }
    },
    {
      "type": "Feature",
      "properties": {
        "grid_id": "NN-02-03",
        "name": "演示网格 2-3",
        "source": "project generated grid",
        "note": "用于前端评分和热力图演示；分值由运行时模型计算"
      },
      "geometry": {
        "type": "Polygon",
        "coordinates": [
          [
            [
              108.2,
              22.75
            ],
            [
              108.25,
              22.75
            ],
            [
              108.25,
              22.799999999999997
            ],
            [
              108.2,
              22.799999999999997
            ],
            [
              108.2,
              22.75
            ]
          ]
        ]
      }
    },
    {
      "type": "Feature",
      "properties": {
        "grid_id": "NN-02-04",
        "name": "演示网格 2-4",
        "source": "project generated grid",
        "note": "用于前端评分和热力图演示；分值由运行时模型计算"
      },
      "geometry": {
        "type": "Polygon",
        "coordinates": [
          [
            [
              108.2,
              22.799999999999997
            ],
            [
              108.25,
              22.799999999999997
            ],
            [
              108.25,
              22.849999999999998
            ],
            [
              108.2,
              22.849999999999998
            ],
            [
              108.2,
              22.799999999999997
            ]
          ]
        ]
      }
    },
    {
      "type": "Feature",
      "properties": {
        "grid_id": "NN-02-05",
        "name": "演示网格 2-5",
        "source": "project generated grid",
        "note": "用于前端评分和热力图演示；分值由运行时模型计算"
      },
      "geometry": {
        "type": "Polygon",
        "coordinates": [
          [
            [
              108.2,
              22.849999999999998
            ],
            [
              108.25,
              22.849999999999998
            ],
            [
              108.25,
              22.9
            ],
            [
              108.2,
              22.9
            ],
            [
              108.2,
              22.849999999999998
            ]
          ]
        ]
      }
    },
    {
      "type": "Feature",
      "properties": {
        "grid_id": "NN-02-06",
        "name": "演示网格 2-6",
        "source": "project generated grid",
        "note": "用于前端评分和热力图演示；分值由运行时模型计算"
      },
      "geometry": {
        "type": "Polygon",
        "coordinates": [
          [
            [
              108.2,
              22.9
            ],
            [
              108.25,
              22.9
            ],
            [
              108.25,
              22.95
            ],
            [
              108.2,
              22.95
            ],
            [
              108.2,
              22.9
            ]
          ]
        ]
      }
    },
    {
      "type": "Feature",
      "properties": {
        "grid_id": "NN-03-01",
        "name": "演示网格 3-1",
        "source": "project generated grid",
        "note": "用于前端评分和热力图演示；分值由运行时模型计算"
      },
      "geometry": {
        "type": "Polygon",
        "coordinates": [
          [
            [
              108.25,
              22.65
            ],
            [
              108.3,
              22.65
            ],
            [
              108.3,
              22.7
            ],
            [
              108.25,
              22.7
            ],
            [
              108.25,
              22.65
            ]
          ]
        ]
      }
    },
    {
      "type": "Feature",
      "properties": {
        "grid_id": "NN-03-02",
        "name": "演示网格 3-2",
        "source": "project generated grid",
        "note": "用于前端评分和热力图演示；分值由运行时模型计算"
      },
      "geometry": {
        "type": "Polygon",
        "coordinates": [
          [
            [
              108.25,
              22.7
            ],
            [
              108.3,
              22.7
            ],
            [
              108.3,
              22.75
            ],
            [
              108.25,
              22.75
            ],
            [
              108.25,
              22.7
            ]
          ]
        ]
      }
    },
    {
      "type": "Feature",
      "properties": {
        "grid_id": "NN-03-03",
        "name": "演示网格 3-3",
        "source": "project generated grid",
        "note": "用于前端评分和热力图演示；分值由运行时模型计算"
      },
      "geometry": {
        "type": "Polygon",
        "coordinates": [
          [
            [
              108.25,
              22.75
            ],
            [
              108.3,
              22.75
            ],
            [
              108.3,
              22.799999999999997
            ],
            [
              108.25,
              22.799999999999997
            ],
            [
              108.25,
              22.75
            ]
          ]
        ]
      }
    },
    {
      "type": "Feature",
      "properties": {
        "grid_id": "NN-03-04",
        "name": "演示网格 3-4",
        "source": "project generated grid",
        "note": "用于前端评分和热力图演示；分值由运行时模型计算"
      },
      "geometry": {
        "type": "Polygon",
        "coordinates": [
          [
            [
              108.25,
              22.799999999999997
            ],
            [
              108.3,
              22.799999999999997
            ],
            [
              108.3,
              22.849999999999998
            ],
            [
              108.25,
              22.849999999999998
            ],
            [
              108.25,
              22.799999999999997
            ]
          ]
        ]
      }
    },
    {
      "type": "Feature",
      "properties": {
        "grid_id": "NN-03-05",
        "name": "演示网格 3-5",
        "source": "project generated grid",
        "note": "用于前端评分和热力图演示；分值由运行时模型计算"
      },
      "geometry": {
        "type": "Polygon",
        "coordinates": [
          [
            [
              108.25,
              22.849999999999998
            ],
            [
              108.3,
              22.849999999999998
            ],
            [
              108.3,
              22.9
            ],
            [
              108.25,
              22.9
            ],
            [
              108.25,
              22.849999999999998
            ]
          ]
        ]
      }
    },
    {
      "type": "Feature",
      "properties": {
        "grid_id": "NN-03-06",
        "name": "演示网格 3-6",
        "source": "project generated grid",
        "note": "用于前端评分和热力图演示；分值由运行时模型计算"
      },
      "geometry": {
        "type": "Polygon",
        "coordinates": [
          [
            [
              108.25,
              22.9
            ],
            [
              108.3,
              22.9
            ],
            [
              108.3,
              22.95
            ],
            [
              108.25,
              22.95
            ],
            [
              108.25,
              22.9
            ]
          ]
        ]
      }
    },
    {
      "type": "Feature",
      "properties": {
        "grid_id": "NN-04-01",
        "name": "演示网格 4-1",
        "source": "project generated grid",
        "note": "用于前端评分和热力图演示；分值由运行时模型计算"
      },
      "geometry": {
        "type": "Polygon",
        "coordinates": [
          [
            [
              108.3,
              22.65
            ],
            [
              108.35,
              22.65
            ],
            [
              108.35,
              22.7
            ],
            [
              108.3,
              22.7
            ],
            [
              108.3,
              22.65
            ]
          ]
        ]
      }
    },
    {
      "type": "Feature",
      "properties": {
        "grid_id": "NN-04-02",
        "name": "演示网格 4-2",
        "source": "project generated grid",
        "note": "用于前端评分和热力图演示；分值由运行时模型计算"
      },
      "geometry": {
        "type": "Polygon",
        "coordinates": [
          [
            [
              108.3,
              22.7
            ],
            [
              108.35,
              22.7
            ],
            [
              108.35,
              22.75
            ],
            [
              108.3,
              22.75
            ],
            [
              108.3,
              22.7
            ]
          ]
        ]
      }
    },
    {
      "type": "Feature",
      "properties": {
        "grid_id": "NN-04-03",
        "name": "演示网格 4-3",
        "source": "project generated grid",
        "note": "用于前端评分和热力图演示；分值由运行时模型计算"
      },
      "geometry": {
        "type": "Polygon",
        "coordinates": [
          [
            [
              108.3,
              22.75
            ],
            [
              108.35,
              22.75
            ],
            [
              108.35,
              22.799999999999997
            ],
            [
              108.3,
              22.799999999999997
            ],
            [
              108.3,
              22.75
            ]
          ]
        ]
      }
    },
    {
      "type": "Feature",
      "properties": {
        "grid_id": "NN-04-04",
        "name": "演示网格 4-4",
        "source": "project generated grid",
        "note": "用于前端评分和热力图演示；分值由运行时模型计算"
      },
      "geometry": {
        "type": "Polygon",
        "coordinates": [
          [
            [
              108.3,
              22.799999999999997
            ],
            [
              108.35,
              22.799999999999997
            ],
            [
              108.35,
              22.849999999999998
            ],
            [
              108.3,
              22.849999999999998
            ],
            [
              108.3,
              22.799999999999997
            ]
          ]
        ]
      }
    },
    {
      "type": "Feature",
      "properties": {
        "grid_id": "NN-04-05",
        "name": "演示网格 4-5",
        "source": "project generated grid",
        "note": "用于前端评分和热力图演示；分值由运行时模型计算"
      },
      "geometry": {
        "type": "Polygon",
        "coordinates": [
          [
            [
              108.3,
              22.849999999999998
            ],
            [
              108.35,
              22.849999999999998
            ],
            [
              108.35,
              22.9
            ],
            [
              108.3,
              22.9
            ],
            [
              108.3,
              22.849999999999998
            ]
          ]
        ]
      }
    },
    {
      "type": "Feature",
      "properties": {
        "grid_id": "NN-04-06",
        "name": "演示网格 4-6",
        "source": "project generated grid",
        "note": "用于前端评分和热力图演示；分值由运行时模型计算"
      },
      "geometry": {
        "type": "Polygon",
        "coordinates": [
          [
            [
              108.3,
              22.9
            ],
            [
              108.35,
              22.9
            ],
            [
              108.35,
              22.95
            ],
            [
              108.3,
              22.95
            ],
            [
              108.3,
              22.9
            ]
          ]
        ]
      }
    },
    {
      "type": "Feature",
      "properties": {
        "grid_id": "NN-05-01",
        "name": "演示网格 5-1",
        "source": "project generated grid",
        "note": "用于前端评分和热力图演示；分值由运行时模型计算"
      },
      "geometry": {
        "type": "Polygon",
        "coordinates": [
          [
            [
              108.35,
              22.65
            ],
            [
              108.4,
              22.65
            ],
            [
              108.4,
              22.7
            ],
            [
              108.35,
              22.7
            ],
            [
              108.35,
              22.65
            ]
          ]
        ]
      }
    },
    {
      "type": "Feature",
      "properties": {
        "grid_id": "NN-05-02",
        "name": "演示网格 5-2",
        "source": "project generated grid",
        "note": "用于前端评分和热力图演示；分值由运行时模型计算"
      },
      "geometry": {
        "type": "Polygon",
        "coordinates": [
          [
            [
              108.35,
              22.7
            ],
            [
              108.4,
              22.7
            ],
            [
              108.4,
              22.75
            ],
            [
              108.35,
              22.75
            ],
            [
              108.35,
              22.7
            ]
          ]
        ]
      }
    },
    {
      "type": "Feature",
      "properties": {
        "grid_id": "NN-05-03",
        "name": "演示网格 5-3",
        "source": "project generated grid",
        "note": "用于前端评分和热力图演示；分值由运行时模型计算"
      },
      "geometry": {
        "type": "Polygon",
        "coordinates": [
          [
            [
              108.35,
              22.75
            ],
            [
              108.4,
              22.75
            ],
            [
              108.4,
              22.799999999999997
            ],
            [
              108.35,
              22.799999999999997
            ],
            [
              108.35,
              22.75
            ]
          ]
        ]
      }
    },
    {
      "type": "Feature",
      "properties": {
        "grid_id": "NN-05-04",
        "name": "演示网格 5-4",
        "source": "project generated grid",
        "note": "用于前端评分和热力图演示；分值由运行时模型计算"
      },
      "geometry": {
        "type": "Polygon",
        "coordinates": [
          [
            [
              108.35,
              22.799999999999997
            ],
            [
              108.4,
              22.799999999999997
            ],
            [
              108.4,
              22.849999999999998
            ],
            [
              108.35,
              22.849999999999998
            ],
            [
              108.35,
              22.799999999999997
            ]
          ]
        ]
      }
    },
    {
      "type": "Feature",
      "properties": {
        "grid_id": "NN-05-05",
        "name": "演示网格 5-5",
        "source": "project generated grid",
        "note": "用于前端评分和热力图演示；分值由运行时模型计算"
      },
      "geometry": {
        "type": "Polygon",
        "coordinates": [
          [
            [
              108.35,
              22.849999999999998
            ],
            [
              108.4,
              22.849999999999998
            ],
            [
              108.4,
              22.9
            ],
            [
              108.35,
              22.9
            ],
            [
              108.35,
              22.849999999999998
            ]
          ]
        ]
      }
    },
    {
      "type": "Feature",
      "properties": {
        "grid_id": "NN-05-06",
        "name": "演示网格 5-6",
        "source": "project generated grid",
        "note": "用于前端评分和热力图演示；分值由运行时模型计算"
      },
      "geometry": {
        "type": "Polygon",
        "coordinates": [
          [
            [
              108.35,
              22.9
            ],
            [
              108.4,
              22.9
            ],
            [
              108.4,
              22.95
            ],
            [
              108.35,
              22.95
            ],
            [
              108.35,
              22.9
            ]
          ]
        ]
      }
    },
    {
      "type": "Feature",
      "properties": {
        "grid_id": "NN-06-01",
        "name": "演示网格 6-1",
        "source": "project generated grid",
        "note": "用于前端评分和热力图演示；分值由运行时模型计算"
      },
      "geometry": {
        "type": "Polygon",
        "coordinates": [
          [
            [
              108.4,
              22.65
            ],
            [
              108.45,
              22.65
            ],
            [
              108.45,
              22.7
            ],
            [
              108.4,
              22.7
            ],
            [
              108.4,
              22.65
            ]
          ]
        ]
      }
    },
    {
      "type": "Feature",
      "properties": {
        "grid_id": "NN-06-02",
        "name": "演示网格 6-2",
        "source": "project generated grid",
        "note": "用于前端评分和热力图演示；分值由运行时模型计算"
      },
      "geometry": {
        "type": "Polygon",
        "coordinates": [
          [
            [
              108.4,
              22.7
            ],
            [
              108.45,
              22.7
            ],
            [
              108.45,
              22.75
            ],
            [
              108.4,
              22.75
            ],
            [
              108.4,
              22.7
            ]
          ]
        ]
      }
    },
    {
      "type": "Feature",
      "properties": {
        "grid_id": "NN-06-03",
        "name": "演示网格 6-3",
        "source": "project generated grid",
        "note": "用于前端评分和热力图演示；分值由运行时模型计算"
      },
      "geometry": {
        "type": "Polygon",
        "coordinates": [
          [
            [
              108.4,
              22.75
            ],
            [
              108.45,
              22.75
            ],
            [
              108.45,
              22.799999999999997
            ],
            [
              108.4,
              22.799999999999997
            ],
            [
              108.4,
              22.75
            ]
          ]
        ]
      }
    },
    {
      "type": "Feature",
      "properties": {
        "grid_id": "NN-06-04",
        "name": "演示网格 6-4",
        "source": "project generated grid",
        "note": "用于前端评分和热力图演示；分值由运行时模型计算"
      },
      "geometry": {
        "type": "Polygon",
        "coordinates": [
          [
            [
              108.4,
              22.799999999999997
            ],
            [
              108.45,
              22.799999999999997
            ],
            [
              108.45,
              22.849999999999998
            ],
            [
              108.4,
              22.849999999999998
            ],
            [
              108.4,
              22.799999999999997
            ]
          ]
        ]
      }
    },
    {
      "type": "Feature",
      "properties": {
        "grid_id": "NN-06-05",
        "name": "演示网格 6-5",
        "source": "project generated grid",
        "note": "用于前端评分和热力图演示；分值由运行时模型计算"
      },
      "geometry": {
        "type": "Polygon",
        "coordinates": [
          [
            [
              108.4,
              22.849999999999998
            ],
            [
              108.45,
              22.849999999999998
            ],
            [
              108.45,
              22.9
            ],
            [
              108.4,
              22.9
            ],
            [
              108.4,
              22.849999999999998
            ]
          ]
        ]
      }
    },
    {
      "type": "Feature",
      "properties": {
        "grid_id": "NN-06-06",
        "name": "演示网格 6-6",
        "source": "project generated grid",
        "note": "用于前端评分和热力图演示；分值由运行时模型计算"
      },
      "geometry": {
        "type": "Polygon",
        "coordinates": [
          [
            [
              108.4,
              22.9
            ],
            [
              108.45,
              22.9
            ],
            [
              108.45,
              22.95
            ],
            [
              108.4,
              22.95
            ],
            [
              108.4,
              22.9
            ]
          ]
        ]
      }
    },
    {
      "type": "Feature",
      "properties": {
        "grid_id": "NN-07-01",
        "name": "演示网格 7-1",
        "source": "project generated grid",
        "note": "用于前端评分和热力图演示；分值由运行时模型计算"
      },
      "geometry": {
        "type": "Polygon",
        "coordinates": [
          [
            [
              108.45,
              22.65
            ],
            [
              108.5,
              22.65
            ],
            [
              108.5,
              22.7
            ],
            [
              108.45,
              22.7
            ],
            [
              108.45,
              22.65
            ]
          ]
        ]
      }
    },
    {
      "type": "Feature",
      "properties": {
        "grid_id": "NN-07-02",
        "name": "演示网格 7-2",
        "source": "project generated grid",
        "note": "用于前端评分和热力图演示；分值由运行时模型计算"
      },
      "geometry": {
        "type": "Polygon",
        "coordinates": [
          [
            [
              108.45,
              22.7
            ],
            [
              108.5,
              22.7
            ],
            [
              108.5,
              22.75
            ],
            [
              108.45,
              22.75
            ],
            [
              108.45,
              22.7
            ]
          ]
        ]
      }
    },
    {
      "type": "Feature",
      "properties": {
        "grid_id": "NN-07-03",
        "name": "演示网格 7-3",
        "source": "project generated grid",
        "note": "用于前端评分和热力图演示；分值由运行时模型计算"
      },
      "geometry": {
        "type": "Polygon",
        "coordinates": [
          [
            [
              108.45,
              22.75
            ],
            [
              108.5,
              22.75
            ],
            [
              108.5,
              22.799999999999997
            ],
            [
              108.45,
              22.799999999999997
            ],
            [
              108.45,
              22.75
            ]
          ]
        ]
      }
    },
    {
      "type": "Feature",
      "properties": {
        "grid_id": "NN-07-04",
        "name": "演示网格 7-4",
        "source": "project generated grid",
        "note": "用于前端评分和热力图演示；分值由运行时模型计算"
      },
      "geometry": {
        "type": "Polygon",
        "coordinates": [
          [
            [
              108.45,
              22.799999999999997
            ],
            [
              108.5,
              22.799999999999997
            ],
            [
              108.5,
              22.849999999999998
            ],
            [
              108.45,
              22.849999999999998
            ],
            [
              108.45,
              22.799999999999997
            ]
          ]
        ]
      }
    },
    {
      "type": "Feature",
      "properties": {
        "grid_id": "NN-07-05",
        "name": "演示网格 7-5",
        "source": "project generated grid",
        "note": "用于前端评分和热力图演示；分值由运行时模型计算"
      },
      "geometry": {
        "type": "Polygon",
        "coordinates": [
          [
            [
              108.45,
              22.849999999999998
            ],
            [
              108.5,
              22.849999999999998
            ],
            [
              108.5,
              22.9
            ],
            [
              108.45,
              22.9
            ],
            [
              108.45,
              22.849999999999998
            ]
          ]
        ]
      }
    },
    {
      "type": "Feature",
      "properties": {
        "grid_id": "NN-07-06",
        "name": "演示网格 7-6",
        "source": "project generated grid",
        "note": "用于前端评分和热力图演示；分值由运行时模型计算"
      },
      "geometry": {
        "type": "Polygon",
        "coordinates": [
          [
            [
              108.45,
              22.9
            ],
            [
              108.5,
              22.9
            ],
            [
              108.5,
              22.95
            ],
            [
              108.45,
              22.95
            ],
            [
              108.45,
              22.9
            ]
          ]
        ]
      }
    },
    {
      "type": "Feature",
      "properties": {
        "grid_id": "NN-08-01",
        "name": "演示网格 8-1",
        "source": "project generated grid",
        "note": "用于前端评分和热力图演示；分值由运行时模型计算"
      },
      "geometry": {
        "type": "Polygon",
        "coordinates": [
          [
            [
              108.5,
              22.65
            ],
            [
              108.55,
              22.65
            ],
            [
              108.55,
              22.7
            ],
            [
              108.5,
              22.7
            ],
            [
              108.5,
              22.65
            ]
          ]
        ]
      }
    },
    {
      "type": "Feature",
      "properties": {
        "grid_id": "NN-08-02",
        "name": "演示网格 8-2",
        "source": "project generated grid",
        "note": "用于前端评分和热力图演示；分值由运行时模型计算"
      },
      "geometry": {
        "type": "Polygon",
        "coordinates": [
          [
            [
              108.5,
              22.7
            ],
            [
              108.55,
              22.7
            ],
            [
              108.55,
              22.75
            ],
            [
              108.5,
              22.75
            ],
            [
              108.5,
              22.7
            ]
          ]
        ]
      }
    },
    {
      "type": "Feature",
      "properties": {
        "grid_id": "NN-08-03",
        "name": "演示网格 8-3",
        "source": "project generated grid",
        "note": "用于前端评分和热力图演示；分值由运行时模型计算"
      },
      "geometry": {
        "type": "Polygon",
        "coordinates": [
          [
            [
              108.5,
              22.75
            ],
            [
              108.55,
              22.75
            ],
            [
              108.55,
              22.799999999999997
            ],
            [
              108.5,
              22.799999999999997
            ],
            [
              108.5,
              22.75
            ]
          ]
        ]
      }
    },
    {
      "type": "Feature",
      "properties": {
        "grid_id": "NN-08-04",
        "name": "演示网格 8-4",
        "source": "project generated grid",
        "note": "用于前端评分和热力图演示；分值由运行时模型计算"
      },
      "geometry": {
        "type": "Polygon",
        "coordinates": [
          [
            [
              108.5,
              22.799999999999997
            ],
            [
              108.55,
              22.799999999999997
            ],
            [
              108.55,
              22.849999999999998
            ],
            [
              108.5,
              22.849999999999998
            ],
            [
              108.5,
              22.799999999999997
            ]
          ]
        ]
      }
    },
    {
      "type": "Feature",
      "properties": {
        "grid_id": "NN-08-05",
        "name": "演示网格 8-5",
        "source": "project generated grid",
        "note": "用于前端评分和热力图演示；分值由运行时模型计算"
      },
      "geometry": {
        "type": "Polygon",
        "coordinates": [
          [
            [
              108.5,
              22.849999999999998
            ],
            [
              108.55,
              22.849999999999998
            ],
            [
              108.55,
              22.9
            ],
            [
              108.5,
              22.9
            ],
            [
              108.5,
              22.849999999999998
            ]
          ]
        ]
      }
    },
    {
      "type": "Feature",
      "properties": {
        "grid_id": "NN-08-06",
        "name": "演示网格 8-6",
        "source": "project generated grid",
        "note": "用于前端评分和热力图演示；分值由运行时模型计算"
      },
      "geometry": {
        "type": "Polygon",
        "coordinates": [
          [
            [
              108.5,
              22.9
            ],
            [
              108.55,
              22.9
            ],
            [
              108.55,
              22.95
            ],
            [
              108.5,
              22.95
            ],
            [
              108.5,
              22.9
            ]
          ]
        ]
      }
    }
  ]
}