{
  "type": "FeatureCollection",
  "name": "green_spaces_demo",
  "features": [
    {
      "type": "Feature",
      "properties": {
        "name": "示例绿地 A",
        "category": "绿城生态空间",
        "tags": ["绿地", "散步", "日常休闲"],
        "cultureText": "占位演示数据：体现绿城生活方式的生态空间。",
        "greenScore": 88,
        "quietScore": 78
      },
      "geometry": {
        "type": "Point",
        "coordinates": [108.3669, 22.8170]
      }
    },
    {
      "type": "Feature",
      "properties": {
        "name": "示例水系 B",
        "category": "水系生态空间",
        "tags": ["水系", "散步", "清凉感"],
        "cultureText": "占位演示数据：代表南宁绿城生态生活中的水系空间。",
        "greenScore": 82,
        "quietScore": 80
      },
      "geometry": {
        "type": "Point",
        "coordinates": [108.3520, 22.8120]
      }
    }
  ]
}
