{
  "type": "FeatureCollection",
  "name": "demo-candidate-points",
  "features": [
    {
      "type": "Feature",
      "properties": {
        "id": "demo_001",
        "name": "青秀区候选点",
        "district": "青秀区",
        "note": "示例点：适合展示综合宜居评分"
      },
      "geometry": {
        "type": "Point",
        "coordinates": [
          108.3669,
          22.817
        ]
      }
    },
    {
      "type": "Feature",
      "properties": {
        "id": "demo_002",
        "name": "西乡塘候选点",
        "district": "西乡塘区",
        "note": "示例点：适合展示大学生租住场景"
      },
      "geometry": {
        "type": "Point",
        "coordinates": [
          108.3063,
          22.8321
        ]
      }
    },
    {
      "type": "Feature",
      "properties": {
        "id": "demo_003",
        "name": "江南区候选点",
        "district": "江南区",
        "note": "示例点：适合展示噪音风险对比"
      },
      "geometry": {
        "type": "Point",
        "coordinates": [
          108.3128,
          22.7812
        ]
      }
    },
    {
      "type": "Feature",
      "properties": {
        "id": "demo_004",
        "name": "良庆区候选点",
        "district": "良庆区",
        "note": "示例点：适合展示新城区环境评估"
      },
      "geometry": {
        "type": "Point",
        "coordinates": [
          108.3935,
          22.7534
        ]
      }
    }
  ]
}